1 29486U 06042A   15152.45367293 -.00000054  00000-0  00000+0 0  9993
2 29486  55.8734 312.0718 0081997 329.2378  18.5544  2.00550331 63637
